[{"OBJECT_NAME":"ONEWEB-0032","OBJECT_ID":"2020-008L","EPOCH":"2026-03-09T23:10:37.985088","MEAN_MOTION":13.103631,"ECCENTRICITY":0.00014095,"INCLINATION":87.8768,"RA_OF_ASC_NODE":56.0271,"ARG_OF_PERICENTER":85.1196,"MEAN_ANOMALY":275.0092,"EPHEMERIS_TYPE":0,"CLASSIFICATION_TYPE":"U","NORAD_CAT_ID":45141,"ELEMENT_SET_NO":999,"REV_AT_EPOCH":29530,"BSTAR":-0.00040449988,"MEAN_MOTION_DOT":-1.29e-6,"MEAN_MOTION_DDOT":0},{"OBJECT_NAME":"UNKNOWN","OBJECT_ID":"","EPOCH":"2026-03-08T14:43:42.855744","MEAN_MOTION":12.81802987,"ECCENTRICITY":0.02531165,"INCLINATION":102.8349,"RA_OF_ASC_NODE":188.1931,"ARG_OF_PERICENTER":226.8521,"MEAN_ANOMALY":131.1151,"EPHEMERIS_TYPE":0,"CLASSIFICATION_TYPE":"U","NORAD_CAT_ID":270038,"ELEMENT_SET_NO":999,"REV_AT_EPOCH":29139,"BSTAR":0.05035361,"MEAN_MOTION_DOT":0.00013424,"MEAN_MOTION_DDOT":0}]
